0 CZ-3A DEB
1 35558U 07003S   13289.24838665  .00000472  00000-0  14851-1 0  4607
2 35558 023.5294 033.6861 7458568 313.9073 005.0081 01.89326753 38143
0 CZ-3A DEB
1 35558U 07003S   13295.58621843  .00000320  00000-0  12570-1 0  4618
2 35558 023.5454 031.8859 7457883 317.0276 004.6806 01.89330928 38269
